STARLINK-5939           
1 56015U 23042AF  26076.83335647  .00038928  00000+0  18739-2 0  9997
2 56015  42.9998 358.3786 0000980 258.5846   5.9737 15.18125715  5669
STARLINK-5943           
1 56016U 23042AG  26076.83335647  .00031605  00000+0  17124-2 0  9990
2 56016  43.0009 358.5560 0000411 280.5404 267.4626 15.14051590  5714
STARLINK-5934           
1 56017U 23042AH  26076.83335647  .00033321  00000+0  17662-2 0  9995
2 56017  43.0013 358.6404 0000470 306.7967 206.5043 15.14809196  5662
STARLINK-5945           
1 56018U 23042AJ  26076.83335647  .00033209  00000+0  18410-2 0  9993
2 56018  43.0010 358.5945 0001161 253.0456 277.7133 15.13215008  5813
STARLINK-5949           
1 56019U 23042AK  26076.83335647  .00034417  00000+0  17867-2 0  9991
2 56019  43.0010 358.6030 0000322 301.5140 228.2846 15.15531223  5811
STARLINK-5912           
1 56020U 23042AL  26076.83335647  .00033939  00000+0  17952-2 0  9996
2 56020  43.0004 358.5011 0001047 217.0993 355.1518 15.14875204  5811
STARLINK-5907           
1 56021U 23042AM  26076.83335647  .00032430  00000+0  17355-2 0  9999
2 56021  43.0008 358.5812 0000302 235.0808 303.3661 15.14480109  5813
STARLINK-5783           
1 56022U 23042AN  26076.83335647  .00036440  00000+0  18311-2 0  9998
2 56022  43.0004 358.1072 0001856 257.9550 119.2451 15.16653727  5716
STARLINK-5771           
1 56023U 23042AP  26076.83335647  .00030426  00000+0  16946-2 0  9999
2 56023  43.0009 358.5740 0000190 249.6339 290.3709 15.13084127  5728
STARLINK-5772           
1 56024U 23042AQ  26076.83335647  .00033357  00000+0  17771-2 0  9993
2 56024  42.9996 358.3588 0001405 234.0053  31.8225 15.14627802  5816
STARLINK-5766           
1 56025U 23042AR  26076.83335647  .00032646  00000+0  17654-2 0  9994
2 56025  43.0000 358.8696 0001663 274.8439 137.1824 15.14107157  5761
STARLINK-5770           
1 56026U 23042AS  26076.83335647  .00035321  00000+0  17752-2 0  9997
2 56026  43.0004 358.0886 0001704 260.8948 123.7183 15.16660015  5718
STARLINK-5777           
1 56027U 23042AT  26076.83335647  .00040337  00000+0  20478-2 0  9990
2 56027  43.0009 358.2620 0001861 248.0463  63.6571 15.16253225  5619
STARLINK-5779           
1 56028U 23042AU  26076.83335647  .00035715  00000+0  19711-2 0  9993
2 56028  43.0006 358.3018 0002014 236.8632  56.1521 15.13343677  5815
STARLINK-5774           
1 56029U 23042AV  26076.83335647  .00070209  00000+0  36279-2 0  9999
2 56029  42.9998 358.4584 0000802 239.4884 346.5586 15.15399185  5672
STARLINK-5781           
1 56030U 23042AW  26076.83335647  .00070025  00000+0  39244-2 0  9992
2 56030  43.0001 358.4487 0001062 208.8682  21.0822 15.12514852  5819
STARLINK-5785           
1 56031U 23042AX  26076.83335647  .00036572  00000+0  19339-2 0  9995
2 56031  43.0014 358.2155 0001938 248.7455  80.8665 15.14856206  5819
