[{"OBJECT_NAME":"STARLINK-5939","OBJECT_ID":"2023-042AF","EPOCH":"2026-03-17T20:00:01.999008","MEAN_MOTION":15.18125715,"ECCENTRICITY":9.8e-5,"INCLINATION":42.9998,"RA_OF_ASC_NODE":358.3786,"ARG_OF_PERICENTER":258.5846,"MEAN_ANOMALY":5.9737,"EPHEMERIS_TYPE":0,"CLASSIFICATION_TYPE":"U","NORAD_CAT_ID":56015,"ELEMENT_SET_NO":999,"REV_AT_EPOCH":566,"BSTAR":0.0018739,"MEAN_MOTION_DOT":0.00038928,"MEAN_MOTION_DDOT":0},{"OBJECT_NAME":"STARLINK-5943","OBJECT_ID":"2023-042AG","EPOCH":"2026-03-17T20:00:01.999008","MEAN_MOTION":15.1405159,"ECCENTRICITY":4.11e-5,"INCLINATION":43.0009,"RA_OF_ASC_NODE":358.556,"ARG_OF_PERICENTER":280.5404,"MEAN_ANOMALY":267.4626,"EPHEMERIS_TYPE":0,"CLASSIFICATION_TYPE":"U","NORAD_CAT_ID":56016,"ELEMENT_SET_NO":999,"REV_AT_EPOCH":571,"BSTAR":0.0017124,"MEAN_MOTION_DOT":0.00031605,"MEAN_MOTION_DDOT":0},{"OBJECT_NAME":"STARLINK-5934","OBJECT_ID":"2023-042AH","EPOCH":"2026-03-17T20:00:01.999008","MEAN_MOTION":15.14809196,"ECCENTRICITY":4.7e-5,"INCLINATION":43.0013,"RA_OF_ASC_NODE":358.6404,"ARG_OF_PERICENTER":306.7967,"MEAN_ANOMALY":206.5043,"EPHEMERIS_TYPE":0,"CLASSIFICATION_TYPE":"U","NORAD_CAT_ID":56017,"ELEMENT_SET_NO":999,"REV_AT_EPOCH":566,"BSTAR":0.0017662,"MEAN_MOTION_DOT":0.00033321,"MEAN_MOTION_DDOT":0},{"OBJECT_NAME":"STARLINK-5945","OBJECT_ID":"2023-042AJ","EPOCH":"2026-03-17T20:00:01.999008","MEAN_MOTION":15.13215008,"ECCENTRICITY":0.0001161,"INCLINATION":43.001,"RA_OF_ASC_NODE":358.5945,"ARG_OF_PERICENTER":253.0456,"MEAN_ANOMALY":277.7133,"EPHEMERIS_TYPE":0,"CLASSIFICATION_TYPE":"U","NORAD_CAT_ID":56018,"ELEMENT_SET_NO":999,"REV_AT_EPOCH":581,"BSTAR":0.001841,"MEAN_MOTION_DOT":0.00033209,"MEAN_MOTION_DDOT":0},{"OBJECT_NAME":"STARLINK-5949","OBJECT_ID":"2023-042AK","EPOCH":"2026-03-17T20:00:01.999008","MEAN_MOTION":15.15531223,"ECCENTRICITY":3.22e-5,"INCLINATION":43.001,"RA_OF_ASC_NODE":358.603,"ARG_OF_PERICENTER":301.514,"MEAN_ANOMALY":228.2846,"EPHEMERIS_TYPE":0,"CLASSIFICATION_TYPE":"U","NORAD_CAT_ID":56019,"ELEMENT_SET_NO":999,"REV_AT_EPOCH":581,"BSTAR":0.0017867,"MEAN_MOTION_DOT":0.00034417,"MEAN_MOTION_DDOT":0},{"OBJECT_NAME":"STARLINK-5912","OBJECT_ID":"2023-042AL","EPOCH":"2026-03-17T20:00:01.999008","MEAN_MOTION":15.14875204,"ECCENTRICITY":0.0001047,"INCLINATION":43.0004,"RA_OF_ASC_NODE":358.5011,"ARG_OF_PERICENTER":217.0993,"MEAN_ANOMALY":355.1518,"EPHEMERIS_TYPE":0,"CLASSIFICATION_TYPE":"U","NORAD_CAT_ID":56020,"ELEMENT_SET_NO":999,"REV_AT_EPOCH":581,"BSTAR":0.0017952,"MEAN_MOTION_DOT":0.00033939,"MEAN_MOTION_DDOT":0},{"OBJECT_NAME":"STARLINK-5907","OBJECT_ID":"2023-042AM","EPOCH":"2026-03-17T20:00:01.999008","MEAN_MOTION":15.14480109,"ECCENTRICITY":3.02e-5,"INCLINATION":43.0008,"RA_OF_ASC_NODE":358.5812,"ARG_OF_PERICENTER":235.0808,"MEAN_ANOMALY":303.3661,"EPHEMERIS_TYPE":0,"CLASSIFICATION_TYPE":"U","NORAD_CAT_ID":56021,"ELEMENT_SET_NO":999,"REV_AT_EPOCH":581,"BSTAR":0.0017355,"MEAN_MOTION_DOT":0.0003243,"MEAN_MOTION_DDOT":0},{"OBJECT_NAME":"STARLINK-5783","OBJECT_ID":"2023-042AN","EPOCH":"2026-03-17T20:00:01.999008","MEAN_MOTION":15.16653727,"ECCENTRICITY":0.0001856,"INCLINATION":43.0004,"RA_OF_ASC_NODE":358.1072,"ARG_OF_PERICENTER":257.955,"MEAN_ANOMALY":119.2451,"EPHEMERIS_TYPE":0,"CLASSIFICATION_TYPE":"U","NORAD_CAT_ID":56022,"ELEMENT_SET_NO":999,"REV_AT_EPOCH":571,"BSTAR":0.0018311,"MEAN_MOTION_DOT":0.0003644,"MEAN_MOTION_DDOT":0},{"OBJECT_NAME":"STARLINK-5771","OBJECT_ID":"2023-042AP","EPOCH":"2026-03-17T20:00:01.999008","MEAN_MOTION":15.13084127,"ECCENTRICITY":1.9e-5,"INCLINATION":43.0009,"RA_OF_ASC_NODE":358.574,"ARG_OF_PERICENTER":249.6339,"MEAN_ANOMALY":290.3709,"EPHEMERIS_TYPE":0,"CLASSIFICATION_TYPE":"U","NORAD_CAT_ID":56023,"ELEMENT_SET_NO":999,"REV_AT_EPOCH":572,"BSTAR":0.0016946,"MEAN_MOTION_DOT":0.00030426,"MEAN_MOTION_DDOT":0},{"OBJECT_NAME":"STARLINK-5772","OBJECT_ID":"2023-042AQ","EPOCH":"2026-03-17T20:00:01.999008","MEAN_MOTION":15.14627802,"ECCENTRICITY":0.0001405,"INCLINATION":42.9996,"RA_OF_ASC_NODE":358.3588,"ARG_OF_PERICENTER":234.0053,"MEAN_ANOMALY":31.8225,"EPHEMERIS_TYPE":0,"CLASSIFICATION_TYPE":"U","NORAD_CAT_ID":56024,"ELEMENT_SET_NO":999,"REV_AT_EPOCH":581,"BSTAR":0.0017771,"MEAN_MOTION_DOT":0.00033357,"MEAN_MOTION_DDOT":0},{"OBJECT_NAME":"STARLINK-5766","OBJECT_ID":"2023-042AR","EPOCH":"2026-03-17T20:00:01.999008","MEAN_MOTION":15.14107157,"ECCENTRICITY":0.0001663,"INCLINATION":43,"RA_OF_ASC_NODE":358.8696,"ARG_OF_PERICENTER":274.8439,"MEAN_ANOMALY":137.1824,"EPHEMERIS_TYPE":0,"CLASSIFICATION_TYPE":"U","NORAD_CAT_ID":56025,"ELEMENT_SET_NO":999,"REV_AT_EPOCH":576,"BSTAR":0.0017654,"MEAN_MOTION_DOT":0.00032646,"MEAN_MOTION_DDOT":0},{"OBJECT_NAME":"STARLINK-5770","OBJECT_ID":"2023-042AS","EPOCH":"2026-03-17T20:00:01.999008","MEAN_MOTION":15.16660015,"ECCENTRICITY":0.0001704,"INCLINATION":43.0004,"RA_OF_ASC_NODE":358.0886,"ARG_OF_PERICENTER":260.8948,"MEAN_ANOMALY":123.7183,"EPHEMERIS_TYPE":0,"CLASSIFICATION_TYPE":"U","NORAD_CAT_ID":56026,"ELEMENT_SET_NO":999,"REV_AT_EPOCH":571,"BSTAR":0.0017752,"MEAN_MOTION_DOT":0.00035321,"MEAN_MOTION_DDOT":0},{"OBJECT_NAME":"STARLINK-5777","OBJECT_ID":"2023-042AT","EPOCH":"2026-03-17T20:00:01.999008","MEAN_MOTION":15.16253225,"ECCENTRICITY":0.0001861,"INCLINATION":43.0009,"RA_OF_ASC_NODE":358.262,"ARG_OF_PERICENTER":248.0463,"MEAN_ANOMALY":63.6571,"EPHEMERIS_TYPE":0,"CLASSIFICATION_TYPE":"U","NORAD_CAT_ID":56027,"ELEMENT_SET_NO":999,"REV_AT_EPOCH":561,"BSTAR":0.0020478,"MEAN_MOTION_DOT":0.00040337,"MEAN_MOTION_DDOT":0},{"OBJECT_NAME":"STARLINK-5779","OBJECT_ID":"2023-042AU","EPOCH":"2026-03-17T20:00:01.999008","MEAN_MOTION":15.13343677,"ECCENTRICITY":0.0002014,"INCLINATION":43.0006,"RA_OF_ASC_NODE":358.3018,"ARG_OF_PERICENTER":236.8632,"MEAN_ANOMALY":56.1521,"EPHEMERIS_TYPE":0,"CLASSIFICATION_TYPE":"U","NORAD_CAT_ID":56028,"ELEMENT_SET_NO":999,"REV_AT_EPOCH":581,"BSTAR":0.0019711,"MEAN_MOTION_DOT":0.00035715,"MEAN_MOTION_DDOT":0},{"OBJECT_NAME":"STARLINK-5774","OBJECT_ID":"2023-042AV","EPOCH":"2026-03-17T20:00:01.999008","MEAN_MOTION":15.15399185,"ECCENTRICITY":8.02e-5,"INCLINATION":42.9998,"RA_OF_ASC_NODE":358.4584,"ARG_OF_PERICENTER":239.4884,"MEAN_ANOMALY":346.5586,"EPHEMERIS_TYPE":0,"CLASSIFICATION_TYPE":"U","NORAD_CAT_ID":56029,"ELEMENT_SET_NO":999,"REV_AT_EPOCH":567,"BSTAR":0.0036279,"MEAN_MOTION_DOT":0.00070209,"MEAN_MOTION_DDOT":0},{"OBJECT_NAME":"STARLINK-5781","OBJECT_ID":"2023-042AW","EPOCH":"2026-03-17T20:00:01.999008","MEAN_MOTION":15.12514852,"ECCENTRICITY":0.0001062,"INCLINATION":43.0001,"RA_OF_ASC_NODE":358.4487,"ARG_OF_PERICENTER":208.8682,"MEAN_ANOMALY":21.0822,"EPHEMERIS_TYPE":0,"CLASSIFICATION_TYPE":"U","NORAD_CAT_ID":56030,"ELEMENT_SET_NO":999,"REV_AT_EPOCH":581,"BSTAR":0.0039244,"MEAN_MOTION_DOT":0.00070025,"MEAN_MOTION_DDOT":0},{"OBJECT_NAME":"STARLINK-5785","OBJECT_ID":"2023-042AX","EPOCH":"2026-03-17T20:00:01.999008","MEAN_MOTION":15.14856206,"ECCENTRICITY":0.0001938,"INCLINATION":43.0014,"RA_OF_ASC_NODE":358.2155,"ARG_OF_PERICENTER":248.7455,"MEAN_ANOMALY":80.8665,"EPHEMERIS_TYPE":0,"CLASSIFICATION_TYPE":"U","NORAD_CAT_ID":56031,"ELEMENT_SET_NO":999,"REV_AT_EPOCH":581,"BSTAR":0.0019339,"MEAN_MOTION_DOT":0.00036572,"MEAN_MOTION_DDOT":0}]
